NORAD_CAT_ID,OBJECT_NAME,OBJECT_TYPE,EPOCH,MEAN_MOTION,ECCENTRICITY,INCLINATION,RA_OF_ASC_NODE,ARG_OF_PERICENTER,MEAN_ANOMALY,BSTAR,MEAN_MOTION_DOT,MEAN_MOTION_DDOT,TLE_LINE0,TLE_LINE1,TLE_LINE2,SEMIMAJOR_AXIS,PERIOD,APOGEE,PERIGEE,DECAYED
49752.0,STARLINK-3209,PAYLOAD,2022-05-08 14:00:01,15.08848421,0.0001648,53.2177,308.941,61.8789,32.2761,-0.00062782,-0.00010268,0.0,0 STARLINK-3209,1 49752U 21115AE  22128.58334491 -.00010268  00000-0 -62782-3 0  9996,2 49752  53.2177 308.9410 0001648  61.8789  32.2761 15.08848421 25264,6917.855,95.437,540.86,538.58,0.0
49752.0,STARLINK-3209,PAYLOAD,2022-05-08 22:00:00,15.08828216,0.000172,53.2177,307.4463,53.5497,52.2142,0.00047464,7.272e-05,0.0,0 STARLINK-3209,1 49752U 21115AE  22128.91667824  .00007272  00000-0  47464-3 0  9991,2 49752  53.2177 307.4463 0001720  53.5497  52.2142 15.08828216  3600,6917.916,95.438,540.971,538.592,0.0
49752.0,STARLINK-3209,PAYLOAD,2022-05-09 14:00:01,15.08852703,0.000161,53.2179,304.4521,58.9808,70.0141,-0.00069579,-0.00011348,0.0,0 STARLINK-3209,1 49752U 21115AE  22129.58335648 -.00011348  00000-0 -69579-3 0  9993,2 49752  53.2179 304.4521 0001610  58.9808  70.0141 15.08852703 25415,6917.842,95.437,540.82,538.5930000000002,0.0
49752.0,STARLINK-3209,PAYLOAD,2022-05-09 22:00:00,15.088326,0.00017,53.2178,302.9573,50.7611,89.7797,0.001477,0.00023292,0.0,0 STARLINK-3209,1 49752U 21115AE  22129.91667824  .00023292  00000-0  14770-2 0  9995,2 49752  53.2178 302.9573 0001700  50.7611  89.7797 15.08832600  3566,6917.903,95.438,540.944,538.592,0.0
49752.0,STARLINK-3209,PAYLOAD,2022-05-10 14:00:01,15.08858202,0.0001506999999999,53.2181,299.9632,55.4585,108.2623,-0.002038,-0.00032592,0.0,0 STARLINK-3209,1 49752U 21115AE  22130.58334491 -.00032592  00000-0 -20380-2 0  9990,2 49752  53.2181 299.9632 0001507  55.4585 108.2623 15.08858202  3604,6917.825,95.436,540.732,538.6469999999998,0.0
49752.0,STARLINK-3209,PAYLOAD,2022-05-10 18:00:00,15.08852977,0.0001589,53.2179,299.2161,50.3214,299.2004,-0.0032086,-0.0005101,0.0,0 STARLINK-3209,1 49752U 21115AE  22130.75001157 -.00051010  00000-0 -32086-2 0  9991,2 49752  53.2179 299.2161 0001589  50.3214 299.2004 15.08852977 25593,6917.840999999999,95.437,540.805,538.606,0.0
49752.0,STARLINK-3209,PAYLOAD,2022-05-11 22:00:00,15.088253,0.0001564999999999,53.2175,293.9791,46.431,163.641,0.0025128,0.00039914,0.0,0 STARLINK-3209,1 49752U 21115AE  22131.91667824  .00039914  00000-0  25128-2 0  9995,2 49752  53.2175 293.9791 0001565  46.4310 163.6410 15.08825300 25760,6917.925,95.438,540.873,538.7080000000002,0.0
49752.0,STARLINK-3209,PAYLOAD,2022-05-12 14:00:01,15.08848555,0.0001501,53.2175,290.9854,55.5756,177.6777,-0.0010616,-0.00017147,0.0,0 STARLINK-3209,1 49752U 21115AE  22132.58334491 -.00017147  00000-0 -10616-2 0  9992,2 49752  53.2175 290.9854 0001501  55.5756 177.6777 15.08848555  1304,6917.854,95.437,540.758,538.681,0.0
49752.0,STARLINK-3209,PAYLOAD,2022-05-12 20:00:01,15.08823676,0.000162,53.2173,289.8641,49.9309,102.0302,0.0027907,0.00044386,0.0,0 STARLINK-3209,1 49752U 21115AE  22132.83334491  .00044386  00000-0  27907-2 0  9994,2 49752  53.2173 289.8641 0001620  49.9309 102.0302 15.08823676 25901,6917.93,95.439,540.9159999999998,538.675,0.0
49752.0,STARLINK-3209,PAYLOAD,2022-05-12 22:00:00,15.08827698,0.0001617,53.217,289.4899,48.9612,195.8971,0.0029965,0.00047708,0.0,0 STARLINK-3209,1 49752U 21115AE  22132.91667824  .00047708  00000-0  29965-2 0  9999,2 49752  53.2170 289.4899 0001617  48.9612 195.8971 15.08827698  1309,6917.918000000002,95.438,540.9019999999998,538.664,0.0
49752.0,STARLINK-3209,PAYLOAD,2022-05-13 14:00:01,15.08853396,0.0001595999999999,53.2171,286.4961,57.5622,210.508,-0.0013636,-0.00021932,0.0,0 STARLINK-3209,1 49752U 21115AE  22133.58334491 -.00021932  00000-0 -13636-2 0  9995,2 49752  53.2171 286.4961 0001596  57.5622 210.5080 15.08853396 26026,6917.839,95.437,540.809,538.6,0.0
49752.0,STARLINK-3209,PAYLOAD,2022-05-13 22:00:00,15.08826948,0.0001639,53.2166,285.0005,49.7624,229.9126,0.00051512,7.917e-05,0.0,0 STARLINK-3209,1 49752U 21115AE  22133.91667824  .00007917  00000-0  51512-3 0  9992,2 49752  53.2166 285.0005 0001639  49.7624 229.9126 15.08826948  1309,6917.92,95.438,540.919,538.651,0.0
49752.0,STARLINK-3209,PAYLOAD,2022-05-14 14:00:01,15.08864953,0.0001595,53.2169,282.0068,54.833,248.0177,-0.0018394,-0.00029463,0.0,0 STARLINK-3209,1 49752U 21115AE  22134.58334491 -.00029463  00000-0 -18394-2 0  9999,2 49752  53.2169 282.0068 0001595  54.8330 248.0177 15.08864953  1306,6917.804,95.436,540.773,538.566,0.0
49752.0,STARLINK-3209,PAYLOAD,2022-05-14 16:00:00,15.088677300000002,0.0001678,53.2168,281.6332,52.4672,343.2863,-0.0027711,-0.00044154,0.0,0 STARLINK-3209,1 49752U 21115AE  22134.66667824 -.00044154  00000-0 -27711-2 0  9994,2 49752  53.2168 281.6332 0001678  52.4672 343.2863 15.08867730 26188,6917.795999999999,95.436,540.821,538.5,0.0
49752.0,STARLINK-3209,PAYLOAD,2022-05-14 22:00:00,15.08840028,0.0001712,53.2166,280.511,49.0896,265.3853,0.0011274,0.000177,0.0,0 STARLINK-3209,1 49752U 21115AE  22134.91667824  .00017700  00000-0  11274-2 0  9994,2 49752  53.2166 280.5110 0001712  49.0896 265.3853 15.08840028  1308,6917.88,95.438,540.93,538.561,0.0
49752.0,STARLINK-3209,PAYLOAD,2022-05-15 06:00:00,15.08828815,0.0001543,53.2168,279.0127,55.1513,270.934,0.0011458,0.00017989,0.0,0 STARLINK-3209,1 49752U 21115AE  22135.25001157  .00017989  00000-0  11458-2 0  9996,2 49752  53.2168 279.0127 0001543  55.1513 270.9340 15.08828815 26273,6917.915,95.438,540.847,538.712,0.0
49752.0,STARLINK-3209,PAYLOAD,2022-05-15 14:00:01,15.08660216,0.0001771,53.2173,277.5043,57.3074,280.4312,0.015438,0.00253116,0.0,0 STARLINK-3209,1 49752U 21115AE  22135.58335648  .00253116  00000-0  15438-1 0  9992,2 49752  53.2173 277.5043 0001771  57.3074 280.4312 15.08660216 26328,6918.43,95.449,541.52,539.07,0.0
49752.0,STARLINK-3209,PAYLOAD,2022-05-15 22:00:00,15.08822397,0.0001641999999999,53.217,276.0216,43.1696,306.0688,0.0020374,0.00032271,0.0,0 STARLINK-3209,1 49752U 21115AE  22135.91667824  .00032271  00000-0  20374-2 0  9996,2 49752  53.2170 276.0216 0001642  43.1696 306.0688 15.08822397  1303,6917.934,95.439,540.935,538.663,0.0
49752.0,STARLINK-3209,PAYLOAD,2022-05-16 06:00:02,15.08826626,0.0001515,53.2173,274.5234,50.6083,310.2817,0.0018475,0.00029227,0.0,0 STARLINK-3209,1 49752U 21115AE  22136.25002315  .00029227  00000-0  18475-2 0  9998,2 49752  53.2173 274.5234 0001515  50.6083 310.2817 15.08826626 26421,6917.920999999999,95.438,540.8340000000002,538.738,0.0
49752.0,STARLINK-3209,PAYLOAD,2022-05-16 14:00:01,15.08846548,0.0001696,53.2177,273.0285,49.3962,323.016,-0.0026128,-0.00041638,0.0,0 STARLINK-3209,1 49752U 21115AE  22136.58334491 -.00041638  00000-0 -26128-2 0  9993,2 49752  53.2177 273.0285 0001696  49.3962 323.0160 15.08846548  1304,6917.86,95.437,540.899,538.552,0.0
49752.0,STARLINK-3209,PAYLOAD,2022-05-16 22:00:00,15.08822992,0.0001726,53.2176,271.5325,42.9705,341.0345,0.00085019,0.00013262,0.0,0 STARLINK-3209,1 49752U 21115AE  22136.91667824  .00013262  00000-0  85019-3 0  9994,2 49752  53.2176 271.5325 0001726  42.9705 341.0345 15.08822992 26522,6917.932,95.439,540.991,538.6030000000002,0.0
49752.0,STARLINK-3209,PAYLOAD,2022-05-17 14:00:01,15.08872855,0.00017,53.2182,268.5397,45.457,1.7762,-0.003332,-0.00052975,0.0,0 STARLINK-3209,1 49752U 21115AE  22137.58335648 -.00052975  00000-0 -33320-2 0  9997,2 49752  53.2182 268.5397 0001700  45.4570   1.7762 15.08872855  1309,6917.78,95.435,540.821,538.469,0.0
49752.0,STARLINK-3209,PAYLOAD,2022-05-17 22:00:01,15.08854712,0.0001769,53.218,267.0435,41.1191,17.7335,-0.0022286,-0.00035596,0.0,0 STARLINK-3209,1 49752U 21115AE  22137.91668981 -.00035596  00000-0 -22286-2 0  9992,2 49752  53.2180 267.0435 0001769  41.1191  17.7335 15.08854712  1306,6917.835,95.437,540.924,538.477,0.0
49752.0,STARLINK-3209,PAYLOAD,2022-05-18 06:00:00,15.08804424,0.0001595999999999,53.2183,265.5458,49.5941,20.7986,0.0041373999999999,0.00066112,0.0,0 STARLINK-3209,1 49752U 21115AE  22138.25001157  .00066112  00000-0  41374-2 0  9991,2 49752  53.2183 265.5458 0001596  49.5941  20.7986 15.08804424 26724,6917.989000000001,95.44,540.9580000000002,538.75,0.0
49752.0,STARLINK-3209,PAYLOAD,2022-05-18 14:00:01,15.08865195,0.0001759,53.2183,264.051,45.4809,36.4894,-0.0022432,-0.00035836,0.0,0 STARLINK-3209,1 49752U 21115AE  22138.58334491 -.00035836  00000-0 -22432-2 0  9992,2 49752  53.2183 264.0510 0001759  45.4809  36.4894 15.08865195  1307,6917.803000000001,95.436,540.885,538.452,0.0
49752.0,STARLINK-3209,PAYLOAD,2022-05-18 22:00:00,15.0886494,0.0001808,53.2179,262.5548,42.4801,51.1026,-0.0048486999999999,-0.00076688,0.0,0 STARLINK-3209,1 49752U 21115AE  22138.91667824 -.00076688  00000-0 -48487-2 0  9996,2 49752  53.2179 262.5548 0001808  42.4801  51.1026 15.08864940 26822,6917.804,95.436,540.92,538.418,0.0
49752.0,STARLINK-3209,PAYLOAD,2022-05-19 14:00:01,15.08828896,0.0001823,53.2179,259.5625,47.1195,69.6758,-0.00042693,-7.074e-05,0.0,0 STARLINK-3209,1 49752U 21115AE  22139.58335648 -.00007074  00000-0 -42693-3 0  9993,2 49752  53.2179 259.5625 0001823  47.1195  69.6758 15.08828896  1301,6917.9140000000025,95.438,541.04,538.518,0.0
49752.0,STARLINK-3209,PAYLOAD,2022-05-19 22:00:00,15.0884739,0.0001789,53.2174,258.0661,43.1085,85.2082,-0.0020045,-0.00032055,0.0,0 STARLINK-3209,1 49752U 21115AE  22139.91667824 -.00032055  00000-0 -20045-2 0  9997,2 49752  53.2174 258.0661 0001789  43.1085  85.2082 15.08847390 26979,6917.858,95.437,540.96,538.485,0.0
49752.0,STARLINK-3209,PAYLOAD,2022-05-20 14:00:01,15.08851993,0.000192,53.2172,255.074,50.0622,101.4307,-0.0018064,-0.00028932,0.0,0 STARLINK-3209,1 49752U 21115AE  22140.58334491 -.00028932  00000-0 -18064-2 0  9990,2 49752  53.2172 255.0740 0001920  50.0622 101.4307 15.08851993 27070,6917.844,95.437,541.0369999999998,538.381,0.0
